{
  "type": "FeatureCollection",
  "features": [
    {
      "type": "Feature",
      "properties": {
        "norad_id": 46995,
        "name": "FENGYUN 1C DEB",
        "group": "fengyun-1c-debris",
        "lat": 81.04437263875215,
        "lon": -5.485849570486439,
        "alt_km": 815.5209811549475,
        "timestamp": "2025-12-12T03:50:52.707631+00:00",
        "meta_object_name": "FENGYUN 1C DEB",
        "meta_object_id": "1999-025EZV",
        "meta_epoch": "2025-12-11T04:54:47.403648",
        "meta_mean_motion": 13.86328831,
        "meta_eccentricity": 0.01903824,
        "meta_inclination": 98.5959,
        "meta_ra_of_asc_node": 67.3353,
        "meta_arg_of_pericenter": 122.4344,
        "meta_mean_anomaly": 239.5386,
        "meta_ephemeris_type": 0,
        "meta_classification_type": "U",
        "meta_norad_cat_id": 46995,
        "meta_element_set_no": 999,
        "meta_rev_at_epoch": 60447,
        "meta_bstar": 0.0035321637,
        "meta_mean_motion_dot": 4.676e-05,
        "meta_mean_motion_ddot": 0,
        "tle_line1": "1 46995U 99025EZV 25345.20471532  .00004676  00000+0  35322-2 0  9990",
        "tle_line2": "2 46995  98.5959  67.3353 0190382 122.4344 239.5386 13.86328831604470"
      },
      "geometry": {
        "type": "Point",
        "coordinates": [
          -5.485849570486439,
          81.04437263875215
        ]
      }
    },
    {
      "type": "Feature",
      "properties": {
        "norad_id": 46997,
        "name": "FENGYUN 1C DEB",
        "group": "fengyun-1c-debris",
        "lat": -35.415422698275485,
        "lon": 32.659701987581066,
        "alt_km": 787.3351560902784,
        "timestamp": "2025-12-12T03:50:52.707641+00:00",
        "meta_object_name": "FENGYUN 1C DEB",
        "meta_object_id": "1999-025EZX",
        "meta_epoch": "2025-12-07T08:16:23.280096",
        "meta_mean_motion": 14.27956499,
        "meta_eccentricity": 0.0024911,
        "meta_inclination": 98.5588,
        "meta_ra_of_asc_node": 21.7939,
        "meta_arg_of_pericenter": 352.6348,
        "meta_mean_anomaly": 70.0216,
        "meta_ephemeris_type": 0,
        "meta_classification_type": "U",
        "meta_norad_cat_id": 46997,
        "meta_element_set_no": 999,
        "meta_rev_at_epoch": 62374,
        "meta_bstar": 0.0018200701,
        "meta_mean_motion_dot": 4.485e-05,
        "meta_mean_motion_ddot": 0,
        "tle_line1": "1 46997U 99025EZX 25341.34471389  .00004485  00000+0  18201-2 0  9998",
        "tle_line2": "2 46997  98.5588  21.7939 0024911 352.6348  70.0216 14.27956499623743"
      },
      "geometry": {
        "type": "Point",
        "coordinates": [
          32.659701987581066,
          -35.415422698275485
        ]
      }
    },
    {
      "type": "Feature",
      "properties": {
        "norad_id": 47001,
        "name": "FENGYUN 1C DEB",
        "group": "fengyun-1c-debris",
        "lat": -34.34523744637974,
        "lon": 50.58137878394512,
        "alt_km": 766.993046694075,
        "timestamp": "2025-12-12T03:50:52.707651+00:00",
        "meta_object_name": "FENGYUN 1C DEB",
        "meta_object_id": "1999-025FAB",
        "meta_epoch": "2025-12-11T09:38:44.993760",
        "meta_mean_motion": 14.38447504,
        "meta_eccentricity": 0.00517509,
        "meta_inclination": 99.3059,
        "meta_ra_of_asc_node": 43.327,
        "meta_arg_of_pericenter": 53.4602,
        "meta_mean_anomaly": 307.1332,
        "meta_ephemeris_type": 0,
        "meta_classification_type": "U",
        "meta_norad_cat_id": 47001,
        "meta_element_set_no": 999,
        "meta_rev_at_epoch": 73895,
        "meta_bstar": 0.0027920428,
        "meta_mean_motion_dot": 8.616e-05,
        "meta_mean_motion_ddot": 0,
        "tle_line1": "1 47001U 99025FAB 25345.40190965  .00008616  00000+0  27920-2 0  9992",
        "tle_line2": "2 47001  99.3059  43.3270 0051750  53.4602 307.1332 14.38447504738957"
      },
      "geometry": {
        "type": "Point",
        "coordinates": [
          50.58137878394512,
          -34.34523744637974
        ]
      }
    },
    {
      "type": "Feature",
      "properties": {
        "norad_id": 47005,
        "name": "FENGYUN 1C DEB",
        "group": "fengyun-1c-debris",
        "lat": 76.76106570381239,
        "lon": -58.938528168343225,
        "alt_km": 885.8616096823807,
        "timestamp": "2025-12-12T03:50:52.707660+00:00",
        "meta_object_name": "FENGYUN 1C DEB",
        "meta_object_id": "1999-025FAF",
        "meta_epoch": "2025-12-03T11:49:12.815616",
        "meta_mean_motion": 14.10913141,
        "meta_eccentricity": 0.00635736,
        "meta_inclination": 99.6019,
        "meta_ra_of_asc_node": 65.7889,
        "meta_arg_of_pericenter": 267.3996,
        "meta_mean_anomaly": 108.1197,
        "meta_ephemeris_type": 0,
        "meta_classification_type": "U",
        "meta_norad_cat_id": 47005,
        "meta_element_set_no": 999,
        "meta_rev_at_epoch": 82637,
        "meta_bstar": 0.0032335345,
        "meta_mean_motion_dot": 5.865e-05,
        "meta_mean_motion_ddot": 0,
        "tle_line1": "1 47005U 99025FAF 25337.49250944  .00005865  00000+0  32335-2 0  9999",
        "tle_line2": "2 47005  99.6019  65.7889 0063573 267.3996 108.1197 14.10913141826379"
      },
      "geometry": {
        "type": "Point",
        "coordinates": [
          -58.938528168343225,
          76.76106570381239
        ]
      }
    },
    {
      "type": "Feature",
      "properties": {
        "norad_id": 47007,
        "name": "FENGYUN 1C DEB",
        "group": "fengyun-1c-debris",
        "lat": -76.2204490907499,
        "lon": -7.843846163328811,
        "alt_km": 1067.7049465126865,
        "timestamp": "2025-12-12T03:50:52.707671+00:00",
        "meta_object_name": "FENGYUN 1C DEB",
        "meta_object_id": "1999-025FAH",
        "meta_epoch": "2025-12-08T21:16:39.177984",
        "meta_mean_motion": 13.97173358,
        "meta_eccentricity": 0.0236041,
        "meta_inclination": 98.2064,
        "meta_ra_of_asc_node": 205.2735,
        "meta_arg_of_pericenter": 64.5325,
        "meta_mean_anomaly": 298.0058,
        "meta_ephemeris_type": 0,
        "meta_classification_type": "U",
        "meta_norad_cat_id": 47007,
        "meta_element_set_no": 999,
        "meta_rev_at_epoch": 78795,
        "meta_bstar": 0.002596,
        "meta_mean_motion_dot": 4.564e-05,
        "meta_mean_motion_ddot": 0,
        "tle_line1": "1 47007U 99025FAH 25342.88656456  .00004564  00000+0  25960-2 0  9999",
        "tle_line2": "2 47007  98.2064 205.2735 0236041  64.5325 298.0058 13.97173358787959"
      },
      "geometry": {
        "type": "Point",
        "coordinates": [
          -7.843846163328811,
          -76.2204490907499
        ]
      }
    },
    {
      "type": "Feature",
      "properties": {
        "norad_id": 47009,
        "name": "FENGYUN 1C DEB",
        "group": "fengyun-1c-debris",
        "lat": -24.308184557424788,
        "lon": -25.877030671849624,
        "alt_km": 1045.838106599038,
        "timestamp": "2025-12-12T03:50:52.707681+00:00",
        "meta_object_name": "FENGYUN 1C DEB",
        "meta_object_id": "1999-025FAK",
        "meta_epoch": "2025-12-02T05:09:31.123584",
        "meta_mean_motion": 13.37303446,
        "meta_eccentricity": 0.0352227,
        "meta_inclination": 98.9376,
        "meta_ra_of_asc_node": 321.2954,
        "meta_arg_of_pericenter": 285.6992,
        "meta_mean_anomaly": 70.555,
        "meta_ephemeris_type": 0,
        "meta_classification_type": "U",
        "meta_norad_cat_id": 47009,
        "meta_element_set_no": 999,
        "meta_rev_at_epoch": 58668,
        "meta_bstar": 0.00057132,
        "meta_mean_motion_dot": 3.87e-06,
        "meta_mean_motion_ddot": 0,
        "tle_line1": "1 47009U 99025FAK 25336.21494356  .00000387  00000+0  57132-3 0  9996",
        "tle_line2": "2 47009  98.9376 321.2954 0352227 285.6992  70.5550 13.37303446586681"
      },
      "geometry": {
        "type": "Point",
        "coordinates": [
          -25.877030671849624,
          -24.308184557424788
        ]
      }
    },
    {
      "type": "Feature",
      "properties": {
        "norad_id": 47012,
        "name": "FENGYUN 1C DEB",
        "group": "fengyun-1c-debris",
        "lat": -78.19462349996373,
        "lon": -87.81558937017628,
        "alt_km": 1079.0754907616683,
        "timestamp": "2025-12-12T03:50:52.707712+00:00",
        "meta_object_name": "FENGYUN 1C DEB",
        "meta_object_id": "1999-025FAN",
        "meta_epoch": "2025-12-05T22:22:36.481152",
        "meta_mean_motion": 13.77908149,
        "meta_eccentricity": 0.01638485,
        "meta_inclination": 98.755,
        "meta_ra_of_asc_node": 218.9381,
        "meta_arg_of_pericenter": 81.7177,
        "meta_mean_anomaly": 280.2518,
        "meta_ephemeris_type": 0,
        "meta_classification_type": "U",
        "meta_norad_cat_id": 47012,
        "meta_element_set_no": 999,
        "meta_rev_at_epoch": 54479,
        "meta_bstar": 0.00065808903,
        "meta_mean_motion_dot": 6.91e-06,
        "meta_mean_motion_ddot": 0,
        "tle_line1": "1 47012U 99025FAN 25339.93236668  .00000691  00000+0  65809-3 0  9990",
        "tle_line2": "2 47012  98.7550 218.9381 0163848  81.7177 280.2518 13.77908149544797"
      },
      "geometry": {
        "type": "Point",
        "coordinates": [
          -87.81558937017628,
          -78.19462349996373
        ]
      }
    }
  ]
}